#aV2014 10  8  0  0  0.00000000     288 DD+AD WGS84 FIT  NGA
## 1813 259200.00000000   300.00000000 56938 0.0000000000000
+   31     1  2  4  5  6  7  8  9 10 11 12 13 14 15 16 17 18
+         19 20 21 22 23 24 25 26 27 28 29 30 31 32  0  0  0
+          0  0  0  0  0  0  0  0  0  0  0  0  0  0  0  0  0
+          0  0  0  0  0  0  0  0  0  0  0  0  0  0  0  0  0
+          0  0  0  0  0  0  0  0  0  0  0  0  0  0  0  0  0
++         2  2  2  2  2  2  2  2  2  2  2  2  2  2  2  2  2
++         2  2  2  2  2  2  2  2  2  2  2  2  2  2  0  0  0
++         0  0  0  0  0  0  0  0  0  0  0  0  0  0  0  0  0
++         0  0  0  0  0  0  0  0  0  0  0  0  0  0  0  0  0
++         0  0  0  0  0  0  0  0  0  0  0  0  0  0  0  0  0
%c cc cc ccc ccc cccc cccc cccc cccc ccccc ccccc ccccc ccccc
%c cc cc ccc ccc cccc cccc cccc cccc ccccc ccccc ccccc ccccc
%f  0.0000000  0.000000000  0.00000000000  0.000000000000000
%f  0.0000000  0.000000000  0.00000000000  0.000000000000000
%i    0    0    0    0      0      0      0      0         0
%i    0    0    0    0      0      0      0      0         0
/*      NGA, ST. LOUIS,MO.                                  
/*   EPHEMERIS COMPUTED FROM  1 DAYS OF DATA                
/*   EPOCHA SMOOTHER                                       
/* CCCCCCCCCCCCCCCCCCCCCCCCCCCCCCCCCCCCCCCCCCCCCCCCCCCCCCCCC
*  2014 10  8 15 35  0.00000000
P  1  15969.277757    331.073430  21196.145303     22.232180                    
V  1   9098.437524  25426.260520  -7082.158440      0.004802                    
P  2 -13884.624131 -22105.115763  -5821.261202    522.990947                    
V  2   -215.590626  -8271.710953  29811.378485      0.022210                    
P  4  15952.296753  -1298.448070  20880.342917     -1.394537                    
V  4   9675.982754  25592.198452  -5463.243122     -0.003853                    
P  5 -10831.494415 -11241.104673 -21523.554167   -331.609095                    
V  5  17235.327900 -21155.612434   2553.587110      0.040356                    
P  6  -5567.630651 -25320.078221   5794.063097     -1.619411                    
V  6   5204.783940   5882.133941  30607.093640      0.023818                    
P  7  10026.176603 -13357.815211 -20468.102386    400.088862                    
V  7   9890.464666  24353.907552 -11347.397075      0.040276                    
P  8  14052.773918  -2931.133653 -22133.987712     15.829695                    
V  8   7109.059011  27627.929152    234.188148      0.002125                    
P  9  19250.392557  -8566.098235 -16176.835258     12.856521                    
V  9  20031.885298   4956.750162  21189.993956     -0.043735                    
P 10   4254.372341 -21830.956091 -14548.864842   -144.884562                    
V 10  13571.463330 -12255.962701  23351.511306     -0.014341                    
P 11  20799.574865   5891.019060  15020.086016   -527.170871                    
V 11  10348.653026  17637.419644 -20371.010656     -0.029392                    
P 12 -19156.930865   4179.196068  17732.462101    237.450790                    
V 12  13965.838299 -17932.114327  19435.680730      0.026778                    
P 13  14535.630810 -10134.122935 -20020.772702    -49.093950                    
V 13  23883.326510   7277.224761  13589.219887     -0.036126                    
P 14  -1746.250789  15124.403684  22004.910615    127.370891                    
V 14 -26656.494542  -6105.013729   1956.086711     -0.036410                    
P 15 -26552.788309  -3075.813166   -126.524181   -207.433531                    
V 15    461.064931  -3326.190666 -30978.575734     -0.022261                    
P 16   9678.973368  11023.695328 -22181.933161   -189.545511                    
V 16 -19004.868498  20516.993921   2254.676217      0.026453                    
P 17   2363.991341 -14969.846031  22080.812493   -129.335511                    
V 17  26832.915581   5385.132666    563.103721     -0.025430                    
P 18 -15842.621117  21098.960756    675.384831    350.033216                    
V 18  -3501.887581  -2321.331742 -31155.217074      0.025713                    
P 19  25079.010639   8836.374190  -3546.234073   -482.509302                    
V 19  -4648.807998   1105.310759 -31176.792246     -0.017873                    
P 20  19960.038596 -10797.685310  13550.212786    242.880268                    
V 20  -7586.688740  16224.814172  23832.335450      0.043349                    
P 21  -6171.379875  18618.542046 -17058.619317   -388.279999                    
V 21 -11018.435667 -20579.075806 -18224.024669     -0.020521                    
P 22  -6298.142746  22825.818675  12082.418941    275.162361                    
V 22 -11981.383085   9870.697742 -25512.845491      0.036877                    
P 23  25645.603779  -1264.562136  -7484.217069    -58.266456                    
V 23   9033.090277   4134.083952  29317.822246     -0.028549                    
P 24 -16950.668232  -4206.151784  20025.055016    -36.482969                    
V 24  -8484.784429 -24019.100510 -12109.457983     -0.006562                    
P 25 -19704.973689  15530.596924   8429.460108     19.084655                    
V 25   5020.537391  -9855.799597  29745.370748     -0.012724                    
P 26 -20593.746474 -13237.925754 -11296.851795    -81.620534                    
V 26  13248.820631   1641.367028 -27433.811463     -0.128499                    
P 27  19225.513187  12410.518602 -13558.753744     20.629625                    
V 27 -17272.636147   -515.205320 -24924.036000      0.029449                    
P 28  11466.957227 -22042.988478   9808.183082    389.845405                    
V 28   9095.568668  -7371.117465 -29140.296781      0.026425                    
P 29 -20541.827516   6536.235638 -15463.743695    565.407861                    
V 29 -18895.003333  -5788.921693  22649.942008      0.024696                    
P 30   3326.162396 -22450.837917 -13753.675444    -70.397774                    
V 30   7247.843151  16085.927919 -24550.587682     -0.037284                    
P 31   6078.660164  25387.158460   4015.173383    330.790680                    
V 31  -4012.437893  -3828.701187  31779.720442     -0.004842                    
P 32  16038.469067   4580.800026  20577.333401   -322.305933                    
V 32 -17205.389593  19856.742214   9544.351363      0.087189                    
EOF
